0 IRIDIUM 33 DEB
1 35857U 97051TH  13283.54279198  .00004015  00000-0  10735-2 0  2173
2 35857 086.4387 129.4032 0035908 024.8203 004.4624 14.47736290229647
0 IRIDIUM 33 DEB
1 35857U 97051TH  13287.02237516  .00004115  00000-0  11004-2 0  2191
2 35857 086.4380 127.9342 0035455 013.7907 139.0262 14.47750848230158
0 IRIDIUM 33 DEB
1 35857U 97051TH  13290.52358174  .00004498  00000-0  12026-2 0  2205
2 35857 086.4385 126.4566 0035108 002.8534 026.4316 14.47782505230654
0 IRIDIUM 33 DEB
1 35857U 97051TH  13295.31012998  .00005326  00000-0  14242-2 0  2212
2 35857 086.4381 124.4345 0034648 346.9139 134.2375 14.47812991231358
